start=new Date('2022-03-26T00:00:00.000Z').valueOf();
sats=[{"TLE_LINE1":"1 45700U 20035AV  22084.27767186  .00001886  00000-0  14552-3 0  9999","MEAN_ANOMALY":"286.6543","TIME_SYSTEM":"UTC","PERIOD":"95.592","TLE_LINE2":"2 45700  53.0543  45.3275 0001336  73.4592 286.6543 15.06395606101295","DECAY_DATE":null,"ECCENTRICITY":"0.00013360","FILE":"3373822","GP_ID":"199660671","LAUNCH_DATE":"2020-06-04","COUNTRY_CODE":"US","EPOCH":"2022-03-25T06:39:50.848704","CENTER_NAME":"EARTH","APOAPSIS":"548.152","SITE":"AFETR","MEAN_MOTION_DDOT":"0.0000000000000","SEMIMAJOR_AXIS":"6925.362","MEAN_ELEMENT_THEORY":"SGP4","RA_OF_ASC_NODE":"45.3275","ARG_OF_PERICENTER":"73.4592","REF_FRAME":"TEME","EPHEMERIS_TYPE":"0","OBJECT_ID":"2020-035AV","MEAN_MOTION":"15.06395606","ELEMENT_SET_NO":"999","RCS_SIZE":"LARGE","MEAN_MOTION_DOT":"0.00001886","OBJECT_NAME":"STARLINK-1400","CLASSIFICATION_TYPE":"U","OBJECT_TYPE":"PAYLOAD","INCLINATION":"53.0543","REV_AT_EPOCH":"10129","PERIAPSIS":"546.302","NORAD_CAT_ID":"45700","BSTAR":"0.00014552000000"},{"RA_OF_ASC_NODE":"43.9891","MEAN_ELEMENT_THEORY":"SGP4","SEMIMAJOR_AXIS":"6925.367","MEAN_MOTION_DDOT":"0.0000000000000","APOAPSIS":"548.583","SITE":"AFETR","GP_ID":"199661422","LAUNCH_DATE":"2020-06-04","EPOCH":"2022-03-25T13:44:28.238784","COUNTRY_CODE":"US","CENTER_NAME":"EARTH","FILE":"3373822","PERIOD":"95.593","TLE_LINE2":"2 45701  53.0566  43.9891 0001950  52.2446 307.8720 15.06393931101331","ECCENTRICITY":"0.00019500","DECAY_DATE":null,"TLE_LINE1":"1 45701U 20035AW  22084.57254906  .00000672  00000-0  64043-4 0  9997","MEAN_ANOMALY":"307.8720","TIME_SYSTEM":"UTC","BSTAR":"0.00006404300000","INCLINATION":"53.0566","REV_AT_EPOCH":"10133","PERIAPSIS":"545.882","NORAD_CAT_ID":"45701","OBJECT_TYPE":"PAYLOAD","MEAN_MOTION_DOT":"0.00000672","CLASSIFICATION_TYPE":"U","OBJECT_NAME":"STARLINK-1403","RCS_SIZE":"LARGE","ELEMENT_SET_NO":"999","MEAN_MOTION":"15.06393931","ARG_OF_PERICENTER":"52.2446","REF_FRAME":"TEME","EPHEMERIS_TYPE":"0","OBJECT_ID":"2020-035AW"},{"MEAN_ANOMALY":"293.9375","TIME_SYSTEM":"UTC","TLE_LINE1":"1 45702U 20035AX  22084.88585274  .00000530  00000-0  54485-4 0  9999","DECAY_DATE":null,"ECCENTRICITY":"0.00017170","TLE_LINE2":"2 45702  53.0547  42.5884 0001717  66.1793 293.9375 15.06404697101375","PERIOD":"95.592","FILE":"3373992","CENTER_NAME":"EARTH","EPOCH":"2022-03-25T21:15:37.676736","LAUNCH_DATE":"2020-06-04","COUNTRY_CODE":"US","GP_ID":"199669237","APOAPSIS":"548.388","SITE":"AFETR","MEAN_MOTION_DDOT":"0.0000000000000","MEAN_ELEMENT_THEORY":"SGP4","SEMIMAJOR_AXIS":"6925.334","RA_OF_ASC_NODE":"42.5884","OBJECT_ID":"2020-035AX","EPHEMERIS_TYPE":"0","REF_FRAME":"TEME","ARG_OF_PERICENTER":"66.1793","MEAN_MOTION":"15.06404697","ELEMENT_SET_NO":"999","RCS_SIZE":"LARGE","MEAN_MOTION_DOT":"0.00000530","OBJECT_NAME":"STARLINK-1405","CLASSIFICATION_TYPE":"U","OBJECT_TYPE":"PAYLOAD","NORAD_CAT_ID":"45702","REV_AT_EPOCH":"10137","PERIAPSIS":"546.010","INCLINATION":"53.0547","BSTAR":"0.00005448500000"},{"ARG_OF_PERICENTER":"65.8791","REF_FRAME":"TEME","EPHEMERIS_TYPE":"0","OBJECT_ID":"2020-035AY","MEAN_MOTION":"15.06404498","ELEMENT_SET_NO":"999","RCS_SIZE":"LARGE","CLASSIFICATION_TYPE":"U","MEAN_MOTION_DOT":"0.00002579","OBJECT_NAME":"STARLINK-1407","OBJECT_TYPE":"PAYLOAD","INCLINATION":"53.0565","PERIAPSIS":"545.851","REV_AT_EPOCH":"10093","NORAD_CAT_ID":"45703","BSTAR":"0.00019196000000","TLE_LINE1":"1 45703U 20035AY  22084.61677298  .00002579  00000-0  19196-3 0  9993","MEAN_ANOMALY":"294.2401","TIME_SYSTEM":"UTC","PERIOD":"95.592","TLE_LINE2":"2 45703  53.0565  43.8084 0001948  65.8791 294.2401 15.06404498100936","ECCENTRICITY":"0.00019480","DECAY_DATE":null,"FILE":"3373992","GP_ID":"199668737","LAUNCH_DATE":"2020-06-04","COUNTRY_CODE":"US","EPOCH":"2022-03-25T14:48:09.185472","CENTER_NAME":"EARTH","APOAPSIS":"548.549","SITE":"AFETR","MEAN_MOTION_DDOT":"0.0000000000000","MEAN_ELEMENT_THEORY":"SGP4","SEMIMAJOR_AXIS":"6925.335","RA_OF_ASC_NODE":"43.8084"},{"RCS_SIZE":"LARGE","ELEMENT_SET_NO":"999","MEAN_MOTION":"15.06404669","ARG_OF_PERICENTER":"61.3373","REF_FRAME":"TEME","OBJECT_ID":"2020-035AZ","EPHEMERIS_TYPE":"0","BSTAR":"0.00010932000000","INCLINATION":"53.0572","NORAD_CAT_ID":"45704","PERIAPSIS":"545.820","REV_AT_EPOCH":"10089","OBJECT_TYPE":"PAYLOAD","MEAN_MOTION_DOT":"0.00001347","OBJECT_NAME":"STARLINK-1409","CLASSIFICATION_TYPE":"U","COUNTRY_CODE":"US","LAUNCH_DATE":"2020-06-04","EPOCH":"2022-03-25T09:03:07.077600","GP_ID":"199661172","CENTER_NAME":"EARTH","FILE":"3373822","TLE_LINE2":"2 45704  53.0572  74.8836 0001991  61.3373 298.7816 15.06404669100893","PERIOD":"95.592","ECCENTRICITY":"0.00019910","DECAY_DATE":null,"TLE_LINE1":"1 45704U 20035AZ  22084.37716525  .00001347  00000-0  10932-3 0  9995","MEAN_ANOMALY":"298.7816","TIME_SYSTEM":"UTC","RA_OF_ASC_NODE":"74.8836","SEMIMAJOR_AXIS":"6925.334","MEAN_ELEMENT_THEORY":"SGP4","MEAN_MOTION_DDOT":"0.0000000000000","APOAPSIS":"548.578","SITE":"AFETR"},{"PERIOD":"95.593","TLE_LINE2":"2 45705  53.0542  73.5657 0002042  56.8774 303.2411 15.06389730100524","DECAY_DATE":null,"ECCENTRICITY":"0.00020420","TLE_LINE1":"1 45705U 20035BA  22084.66930831  .00000185  00000-0  31319-4 0  9998","MEAN_ANOMALY":"303.2411","TIME_SYSTEM":"UTC","GP_ID":"199668740","COUNTRY_CODE":"US","LAUNCH_DATE":"2020-06-04","EPOCH":"2022-03-25T16:03:48.237984","CENTER_NAME":"EARTH","FILE":"3373992","MEAN_MOTION_DDOT":"0.0000000000000","SITE":"AFETR","APOAPSIS":"548.659","RA_OF_ASC_NODE":"73.5657","MEAN_ELEMENT_THEORY":"SGP4","SEMIMAJOR_AXIS":"6925.380","MEAN_MOTION":"15.06389730","REF_FRAME":"TEME","ARG_OF_PERICENTER":"56.8774","OBJECT_ID":"2020-035BA","EPHEMERIS_TYPE":"0","RCS_SIZE":"LARGE","ELEMENT_SET_NO":"999","OBJECT_TYPE":"PAYLOAD","MEAN_MOTION_DOT":"0.00000185","OBJECT_NAME":"STARLINK-1410","CLASSIFICATION_TYPE":"U","BSTAR":"0.00003131900000","INCLINATION":"53.0542","PERIAPSIS":"545.831","REV_AT_EPOCH":"10052","NORAD_CAT_ID":"45705"},{"RA_OF_ASC_NODE":"45.3841","MEAN_ELEMENT_THEORY":"SGP4","SEMIMAJOR_AXIS":"6925.364","MEAN_MOTION_DDOT":"0.0000000000000","SITE":"AFETR","APOAPSIS":"548.453","GP_ID":"199659671","EPOCH":"2022-03-25T06:18:37.132128","LAUNCH_DATE":"2020-06-04","COUNTRY_CODE":"US","CENTER_NAME":"EARTH","FILE":"3373822","PERIOD":"95.592","TLE_LINE2":"2 45706  53.0543  45.3841 0001767  53.3252 306.7899 15.06394820101282","ECCENTRICITY":"0.00017670","DECAY_DATE":null,"TLE_LINE1":"1 45706U 20035BB  22084.26292977 -.00000360  00000-0 -52491-5 0  9999","TIME_SYSTEM":"UTC","MEAN_ANOMALY":"306.7899","BSTAR":"-0.00000524910000","INCLINATION":"53.0543","PERIAPSIS":"546.006","REV_AT_EPOCH":"10128","NORAD_CAT_ID":"45706","OBJECT_TYPE":"PAYLOAD","CLASSIFICATION_TYPE":"U","MEAN_MOTION_DOT":"-0.00000360","OBJECT_NAME":"STARLINK-1411","RCS_SIZE":"LARGE","ELEMENT_SET_NO":"999","MEAN_MOTION":"15.06394820","REF_FRAME":"TEME","ARG_OF_PERICENTER":"53.3252","OBJECT_ID":"2020-035BB","EPHEMERIS_TYPE":"0"},{"APOAPSIS":"548.381","SITE":"AFETR","MEAN_MOTION_DDOT":"0.0000000000000","SEMIMAJOR_AXIS":"6925.362","MEAN_ELEMENT_THEORY":"SGP4","RA_OF_ASC_NODE":"43.9205","TLE_LINE1":"1 45707U 20035BC  22084.59098337 -.00000107  00000-0  11725-4 0  9992","MEAN_ANOMALY":"303.6897","TIME_SYSTEM":"UTC","PERIOD":"95.592","TLE_LINE2":"2 45707  53.0562  43.9205 0001667  56.4251 303.6897 15.06395772101342","ECCENTRICITY":"0.00016670","DECAY_DATE":null,"FILE":"3373822","GP_ID":"199659921","COUNTRY_CODE":"US","LAUNCH_DATE":"2020-06-04","EPOCH":"2022-03-25T14:11:00.963168","CENTER_NAME":"EARTH","MEAN_MOTION_DOT":"-0.00000107","OBJECT_NAME":"STARLINK-1412","CLASSIFICATION_TYPE":"U","OBJECT_TYPE":"PAYLOAD","INCLINATION":"53.0562","PERIAPSIS":"546.072","REV_AT_EPOCH":"10134","NORAD_CAT_ID":"45707","BSTAR":"0.00001172500000","ARG_OF_PERICENTER":"56.4251","REF_FRAME":"TEME","OBJECT_ID":"2020-035BC","EPHEMERIS_TYPE":"0","MEAN_MOTION":"15.06395772","ELEMENT_SET_NO":"999","RCS_SIZE":"LARGE"},{"CENTER_NAME":"EARTH","GP_ID":"199660672","EPOCH":"2022-03-25T07:11:41.794656","LAUNCH_DATE":"2020-06-04","COUNTRY_CODE":"US","FILE":"3373822","DECAY_DATE":null,"ECCENTRICITY":"0.00016090","PERIOD":"95.593","TLE_LINE2":"2 45708  53.0550  45.2181 0001609  72.8414 287.2751 15.06382894101300","MEAN_ANOMALY":"287.2751","TIME_SYSTEM":"UTC","TLE_LINE1":"1 45708U 20035BD  22084.29978929  .00005614  00000-0  39565-3 0  9992","RA_OF_ASC_NODE":"45.2181","SEMIMAJOR_AXIS":"6925.401","MEAN_ELEMENT_THEORY":"SGP4","MEAN_MOTION_DDOT":"0.0000000000000","APOAPSIS":"548.380","SITE":"AFETR","RCS_SIZE":"LARGE","ELEMENT_SET_NO":"999","MEAN_MOTION":"15.06382894","OBJECT_ID":"2020-035BD","EPHEMERIS_TYPE":"0","ARG_OF_PERICENTER":"72.8414","REF_FRAME":"TEME","BSTAR":"0.00039565000000","PERIAPSIS":"546.152","REV_AT_EPOCH":"10130","NORAD_CAT_ID":"45708","INCLINATION":"53.0550","OBJECT_TYPE":"PAYLOAD","MEAN_MOTION_DOT":"0.00005614","CLASSIFICATION_TYPE":"U","OBJECT_NAME":"STARLINK-1418"},{"MEAN_MOTION_DDOT":"0.0000000000000","SITE":"AFETR","APOAPSIS":"548.525","RA_OF_ASC_NODE":"42.6803","MEAN_ELEMENT_THEORY":"SGP4","SEMIMAJOR_AXIS":"6925.345","DECAY_DATE":null,"ECCENTRICITY":"0.00019000","TLE_LINE2":"2 45709  53.0561  42.6803 0001900  55.0392 305.0776 15.06401302100971","PERIOD":"95.592","MEAN_ANOMALY":"305.0776","TIME_SYSTEM":"UTC","TLE_LINE1":"1 45709U 20035BE  22084.86742413  .00000474  00000-0  50753-4 0  9995","CENTER_NAME":"EARTH","EPOCH":"2022-03-25T20:49:05.444832","LAUNCH_DATE":"2020-06-04","COUNTRY_CODE":"US","GP_ID":"199671268","FILE":"3374068","OBJECT_TYPE":"PAYLOAD","MEAN_MOTION_DOT":"0.00000474","CLASSIFICATION_TYPE":"U","OBJECT_NAME":"STARLINK-1421","BSTAR":"0.00005075300000","NORAD_CAT_ID":"45709","PERIAPSIS":"545.894","REV_AT_EPOCH":"10097","INCLINATION":"53.0561","MEAN_MOTION":"15.06401302","OBJECT_ID":"2020-035BE","EPHEMERIS_TYPE":"0","REF_FRAME":"TEME","ARG_OF_PERICENTER":"55.0392","RCS_SIZE":"LARGE","ELEMENT_SET_NO":"999"}];
